{
  "message": "",
  "result": true,
  "data": [
    {
      "clientId": 8245,
      "clientName": "Murthyyy2",
      "companyName": "Amazon",
      "address": "Hollywood drive 16",
      "city": "New York city",
      "pincode": "1232",
      "state": "California",
      "employeeStrength": 111222,
      "gstNo": "HspQRC",
      "contactNo": "1111",
      "regNo": "12234"
    },
    {
      "clientId": 8327,
      "clientName": "Samy smithc",
      "companyName": "Google ABhhh",
      "address": "Mars 3",
      "city": "wewwwr",
      "pincode": "212122",
      "state": "Texas",
      "employeeStrength": 12121212,
      "gstNo": "232323",
      "contactNo": "4111111115",
      "regNo": "232323232"
    },
    {
      "clientId": 8349,
      "clientName": "shrutii",
      "companyName": "WalStar",
      "address": "",
      "city": "Kolhapur",
      "pincode": "23313",
      "state": "MH",
      "employeeStrength": 67,
      "gstNo": "123",
      "contactNo": "4644566346",
      "regNo": "213123"
    },
    {
      "clientId": 8413,
      "clientName": "hhhhhhh",
      "companyName": "ddd",
      "address": "string",
      "city": "bengo",
      "pincode": "string",
      "state": "string",
      "employeeStrength": 0,
      "gstNo": "string",
      "contactNo": "22",
      "regNo": "string"
    },
    {
      "clientId": 8435,
      "clientName": "XYZ",
      "companyName": "Accenture",
      "address": "addadasdasdasd",
      "city": "pune",
      "pincode": "411047",
      "state": "MH",
      "employeeStrength": 23,
      "gstNo": "asdasd",
      "contactNo": "1111122222",
      "regNo": "asdad"
    },
    {
      "clientId": 8472,
      "clientName": "Kousik",
      "companyName": "Big B",
      "address": "Memanagar, Gurukul Metro, Ahmedabad",
      "city": "Ahmedabad",
      "pincode": "380052",
      "state": "Gujarat",
      "employeeStrength": 74,
      "gstNo": "12312312312312",
      "contactNo": "8754784596",
      "regNo": "GJ-01"
    },
    {
      "clientId": 8475,
      "clientName": "Janvi",
      "companyName": "Rubust",
      "address": "bbbbbbbbbbbbbbbbbbbbbbbbbb",
      "city": "Baroda",
      "pincode": "789955",
      "state": "MP",
      "employeeStrength": 78,
      "gstNo": "0i0000-23-32",
      "contactNo": "1234112412",
      "regNo": "432141"
    },
    {
      "clientId": 8476,
      "clientName": "Maya",
      "companyName": "Zoner",
      "address": "BBBBBBBBBBBBBBBBbbbbbb",
      "city": "Vapi",
      "pincode": "923932",
      "state": "Gujarat",
      "employeeStrength": 1213,
      "gstNo": "9293f-d-fwef3",
      "contactNo": "2930320113",
      "regNo": "2j1be9f1"
    },
    {
      "clientId": 8492,
      "clientName": "string",
      "companyName": "string",
      "address": "string",
      "city": "string",
      "pincode": "string",
      "state": "string",
      "employeeStrength": 0,
      "gstNo": "string",
      "contactNo": "string",
      "regNo": "string"
    },
    {
      "clientId": 8493,
      "clientName": "PPP",
      "companyName": "PPP",
      "address": "asasa",
      "city": "Pune",
      "pincode": "0099",
      "state": "Mh",
      "employeeStrength": 20,
      "gstNo": "dd",
      "contactNo": "1111",
      "regNo": "dd"
    },
    {
      "clientId": 8495,
      "clientName": "ff",
      "companyName": "ff",
      "address": "ff",
      "city": "455",
      "pincode": "99",
      "state": "ff",
      "employeeStrength": 0,
      "gstNo": "kk",
      "contactNo": "ff",
      "regNo": "kk"
    },
    {
      "clientId": 8496,
      "clientName": "Saad",
      "companyName": "ALMG",
      "address": "ROAD",
      "city": "KHI",
      "pincode": "021",
      "state": "AJRK",
      "employeeStrength": 10,
      "gstNo": "0800",
      "contactNo": "0800",
      "regNo": "0800"
    },
    {
      "clientId": 8498,
      "clientName": "ddddd",
      "companyName": "test",
      "address": "",
      "city": "Sfax",
      "pincode": "",
      "state": "",
      "employeeStrength": 0,
      "gstNo": "test",
      "contactNo": "32232",
      "regNo": "3232"
    },
    {
      "clientId": 8499,
      "clientName": "1234",
      "companyName": "w442",
      "address": "2323",
      "city": "242",
      "pincode": "4224",
      "state": "2442",
      "employeeStrength": 424,
      "gstNo": "2324",
      "contactNo": "wewe",
      "regNo": "242424"
    },
    {
      "clientId": 8500,
      "clientName": "lakae",
      "companyName": "LULU",
      "address": "LEKA LEKA",
      "city": "LUCA",
      "pincode": "1256",
      "state": "LALA",
      "employeeStrength": 1,
      "gstNo": "2222",
      "contactNo": "12346464664",
      "regNo": "12"
    },
    {
      "clientId": 8501,
      "clientName": "lakae",
      "companyName": "LULU",
      "address": "LEKA LEKA",
      "city": "LUCA",
      "pincode": "1256",
      "state": "LALA",
      "employeeStrength": 1,
      "gstNo": "2222",
      "contactNo": "12346464664",
      "regNo": "12"
    },
    {
      "clientId": 8502,
      "clientName": "therealsteel",
      "companyName": "Google Deepmind",
      "address": "LA",
      "city": "USA",
      "pincode": "12345",
      "state": "Virginia",
      "employeeStrength": 2,
      "gstNo": "23456",
      "contactNo": "01234567",
      "regNo": "19"
    },
    {
      "clientId": 8503,
      "clientName": "RANA",
      "companyName": "BB",
      "address": "Hyderabad",
      "city": "Telangana",
      "pincode": "1444",
      "state": "AP",
      "employeeStrength": 2,
      "gstNo": "2",
      "contactNo": "14",
      "regNo": "11"
    },
    {
      "clientId": 8504,
      "clientName": "Navnit",
      "companyName": "UKL",
      "address": "UP ",
      "city": "UP",
      "pincode": "3333",
      "state": "UP",
      "employeeStrength": 1,
      "gstNo": "1",
      "contactNo": "12211111",
      "regNo": "111"
    },
    {
      "clientId": 8505,
      "clientName": "vinot",
      "companyName": "chom",
      "address": "3vds v",
      "city": "sjksajk",
      "pincode": "3432",
      "state": "kjcd",
      "employeeStrength": 3,
      "gstNo": "tret ",
      "contactNo": "353454",
      "regNo": "rwegf"
    },
    {
      "clientId": 8506,
      "clientName": "string",
      "companyName": "string",
      "address": "string",
      "city": "string",
      "pincode": "string",
      "state": "string",
      "employeeStrength": 0,
      "gstNo": "string",
      "contactNo": "string",
      "regNo": "string"
    },
    {
      "clientId": 8507,
      "clientName": "string",
      "companyName": "string",
      "address": "string",
      "city": "string",
      "pincode": "string",
      "state": "string",
      "employeeStrength": 0,
      "gstNo": "string",
      "contactNo": "string",
      "regNo": "string"
    },
    {
      "clientId": 8509,
      "clientName": "Sukumar",
      "companyName": "Accenture",
      "address": "ABC street",
      "city": "Kolkata",
      "pincode": "700034",
      "state": "West Bengal",
      "employeeStrength": 2,
      "gstNo": "129823847293",
      "contactNo": "8902738903",
      "regNo": "HIWUH39203920"
    },
    {
      "clientId": 8510,
      "clientName": "string",
      "companyName": "string",
      "address": "string",
      "city": "string",
      "pincode": "string",
      "state": "string",
      "employeeStrength": 0,
      "gstNo": "string",
      "contactNo": "string",
      "regNo": "string"
    },
    {
      "clientId": 8511,
      "clientName": "string",
      "companyName": "string",
      "address": "string",
      "city": "string",
      "pincode": "string",
      "state": "string",
      "employeeStrength": 0,
      "gstNo": "string",
      "contactNo": "string",
      "regNo": "string"
    },
    {
      "clientId": 8517,
      "clientName": "SSS23",
      "companyName": "Google",
      "address": "123 Place",
      "city": "San Francisco",
      "pincode": "9983",
      "state": "California",
      "employeeStrength": 20,
      "gstNo": "asdasd",
      "contactNo": "5555555",
      "regNo": "asdasds"
    },
    {
      "clientId": 8519,
      "clientName": "string",
      "companyName": "string",
      "address": "string",
      "city": "string",
      "pincode": "string",
      "state": "string",
      "employeeStrength": 0,
      "gstNo": "string",
      "contactNo": "string",
      "regNo": "string"
    },
    {
      "clientId": 8520,
      "clientName": "string",
      "companyName": "string",
      "address": "string",
      "city": "string",
      "pincode": "string",
      "state": "string",
      "employeeStrength": 0,
      "gstNo": "string",
      "contactNo": "string",
      "regNo": "string"
    },
    {
      "clientId": 8524,
      "clientName": "name",
      "companyName": "company",
      "address": "address",
      "city": "city",
      "pincode": "e837",
      "state": "state",
      "employeeStrength": 3,
      "gstNo": "das",
      "contactNo": "0912830",
      "regNo": "232"
    },
    {
      "clientId": 8527,
      "clientName": "string",
      "companyName": "string",
      "address": "string",
      "city": "string",
      "pincode": "string",
      "state": "string",
      "employeeStrength": 0,
      "gstNo": "string",
      "contactNo": "string",
      "regNo": "string"
    },
    {
      "clientId": 8528,
      "clientName": "ppp",
      "companyName": "Accenture",
      "address": "wedfr",
      "city": "pune",
      "pincode": "wef",
      "state": "mb",
      "employeeStrength": 0,
      "gstNo": "wdefr",
      "contactNo": "1234",
      "regNo": "wefr"
    },
    {
      "clientId": 8529,
      "clientName": "dodok",
      "companyName": "dkow",
      "address": "kdow",
      "city": "dkowk",
      "pincode": "dkwok",
      "state": "dowk",
      "contactNo": "dkowk",
      "employeeStrength": 0,
      "gstNo": "",
      "regNo": ""
    }
  ]
}